[{"OBJECT_NAME":"STARLINK-36947","OBJECT_ID":"2026-040U","EPOCH":"2026-03-09T22:00:01.999584","MEAN_MOTION":16.06496121,"ECCENTRICITY":8.408e-5,"INCLINATION":97.2771,"RA_OF_ASC_NODE":17.1261,"ARG_OF_PERICENTER":96.0858,"MEAN_ANOMALY":290.6551,"EPHEMERIS_TYPE":0,"CLASSIFICATION_TYPE":"U","NORAD_CAT_ID":68033,"ELEMENT_SET_NO":999,"REV_AT_EPOCH":246,"BSTAR":-0.0015618765,"MEAN_MOTION_DOT":-0.01155737,"MEAN_MOTION_DDOT":0.00046242691},{"OBJECT_NAME":"ATLAS CENTAUR R\/B","OBJECT_ID":"2012-048N","EPOCH":"2026-03-09T22:10:29.696448","MEAN_MOTION":15.92956396,"ECCENTRICITY":0.00225847,"INCLINATION":64.6216,"RA_OF_ASC_NODE":226.7555,"ARG_OF_PERICENTER":234.3173,"MEAN_ANOMALY":125.5886,"EPHEMERIS_TYPE":0,"CLASSIFICATION_TYPE":"U","NORAD_CAT_ID":38770,"ELEMENT_SET_NO":999,"REV_AT_EPOCH":10335,"BSTAR":0.0011406583,"MEAN_MOTION_DOT":0.00408861,"MEAN_MOTION_DDOT":7.1817314e-5}]
